{"type": "FeatureCollection", "name": "DTW Approach Corridors \u2014 North Flow", "properties": {"flow": "north_flow", "label": "North Flow", "corridors": ["04L", "04R", "03R"], "note": "Glide to the FAF then hold 2000 ft AGL (step-down) out to 10 NM; width/band from South Flow."}, "features": [{"type": "Feature", "geometry": {"type": "Polygon", "coordinates": [[[-83.38290105397228, 42.20168009039891, 196.6], [-83.42781977007539, 42.142384684825515, 806.2], [-83.49269106858826, 42.056523428051854, 806.2], [-83.50515586919963, 42.0620513257417, 806.2], [-83.43423592951129, 42.145226337007806, 806.2], [-83.38512896340795, 42.20266589882383, 196.6], [-83.38290105397228, 42.20168009039891, 196.6]]]}, "properties": {"flow": "north_flow", "corridor": "04L", "role": "bottom", "name": "Bottom"}}, {"type": "Feature", "geometry": {"type": "Polygon", "coordinates": [[[-83.38290105397228, 42.20168009039891, 501.6], [-83.42781977007539, 42.142384684825515, 1111.2], [-83.49269106858826, 42.056523428051854, 1111.2], [-83.50515586919963, 42.0620513257417, 1111.2], [-83.43423592951129, 42.145226337007806, 1111.2], [-83.38512896340795, 42.20266589882383, 501.6], [-83.38290105397228, 42.20168009039891, 501.6]]]}, "properties": {"flow": "north_flow", "corridor": "04L", "role": "top", "name": "Top"}}, {"type": "Feature", "geometry": {"type": "Polygon", "coordinates": [[[-83.38290105397228, 42.20168009039891, 196.6], [-83.42781977007539, 42.142384684825515, 806.2], [-83.42781977007539, 42.142384684825515, 1111.2], [-83.38290105397228, 42.20168009039891, 501.6], [-83.38290105397228, 42.20168009039891, 196.6]]]}, "properties": {"flow": "north_flow", "corridor": "04L", "role": "wall", "name": "Left Wall Segment 1"}}, {"type": "Feature", "geometry": {"type": "Polygon", "coordinates": [[[-83.38512896340795, 42.20266589882383, 196.6], [-83.43423592951129, 42.145226337007806, 806.2], [-83.43423592951129, 42.145226337007806, 1111.2], [-83.38512896340795, 42.20266589882383, 501.6], [-83.38512896340795, 42.20266589882383, 196.6]]]}, "properties": {"flow": "north_flow", "corridor": "04L", "role": "wall", "name": "Right Wall Segment 1"}}, {"type": "Feature", "geometry": {"type": "Polygon", "coordinates": [[[-83.42781977007539, 42.142384684825515, 806.2], [-83.49269106858826, 42.056523428051854, 806.2], [-83.49269106858826, 42.056523428051854, 1111.2], [-83.42781977007539, 42.142384684825515, 1111.2], [-83.42781977007539, 42.142384684825515, 806.2]]]}, "properties": {"flow": "north_flow", "corridor": "04L", "role": "wall", "name": "Left Wall Segment 2"}}, {"type": "Feature", "geometry": {"type": "Polygon", "coordinates": [[[-83.43423592951129, 42.145226337007806, 806.2], [-83.50515586919963, 42.0620513257417, 806.2], [-83.50515586919963, 42.0620513257417, 1111.2], [-83.43423592951129, 42.145226337007806, 1111.2], [-83.43423592951129, 42.145226337007806, 806.2]]]}, "properties": {"flow": "north_flow", "corridor": "04L", "role": "wall", "name": "Right Wall Segment 2"}}, {"type": "Feature", "geometry": {"type": "LineString", "coordinates": [[-83.384015, 42.202172999999995, 196.6], [-83.4310277778, 42.1438055556, 806.2], [-83.49892319762269, 42.059287545488374, 806.2]]}, "properties": {"flow": "north_flow", "corridor": "04L", "role": "centerline", "name": "Glidepath Centerline"}}, {"type": "Feature", "geometry": {"type": "Point", "coordinates": [-83.384015, 42.202172999999995, 196.6]}, "properties": {"flow": "north_flow", "corridor": "04L", "role": "waypoint", "name": "RWY04L"}}, {"type": "Feature", "geometry": {"type": "Point", "coordinates": [-83.4310277778, 42.1438055556, 806.2]}, "properties": {"flow": "north_flow", "corridor": "04L", "role": "waypoint", "name": "04L FAF (2000ft)"}}, {"type": "Feature", "geometry": {"type": "Point", "coordinates": [-83.49892319762269, 42.059287545488374, 806.2]}, "properties": {"flow": "north_flow", "corridor": "04L", "role": "waypoint", "name": "04L 10NM (2000ft)"}}, {"type": "Feature", "geometry": {"type": "Polygon", "coordinates": [[[-83.36923767241107, 42.20312299164194, 196.6], [-83.41133895241917, 42.1420274291618, 806.2], [-83.47123811951438, 42.0548742854726, 806.2], [-83.48398627472767, 42.060033194474336, 806.2], [-83.41793896440205, 42.144694698476755, 806.2], [-83.37151634417943, 42.20404299708407, 196.6], [-83.36923767241107, 42.20312299164194, 196.6]]]}, "properties": {"flow": "north_flow", "corridor": "04R", "role": "bottom", "name": "Bottom"}}, {"type": "Feature", "geometry": {"type": "Polygon", "coordinates": [[[-83.36923767241107, 42.20312299164194, 501.6], [-83.41133895241917, 42.1420274291618, 1111.2], [-83.47123811951438, 42.0548742854726, 1111.2], [-83.48398627472767, 42.060033194474336, 1111.2], [-83.41793896440205, 42.144694698476755, 1111.2], [-83.37151634417943, 42.20404299708407, 501.6], [-83.36923767241107, 42.20312299164194, 501.6]]]}, "properties": {"flow": "north_flow", "corridor": "04R", "role": "top", "name": "Top"}}, {"type": "Feature", "geometry": {"type": "Polygon", "coordinates": [[[-83.36923767241107, 42.20312299164194, 196.6], [-83.41133895241917, 42.1420274291618, 806.2], [-83.41133895241917, 42.1420274291618, 1111.2], [-83.36923767241107, 42.20312299164194, 501.6], [-83.36923767241107, 42.20312299164194, 196.6]]]}, "properties": {"flow": "north_flow", "corridor": "04R", "role": "wall", "name": "Left Wall Segment 1"}}, {"type": "Feature", "geometry": {"type": "Polygon", "coordinates": [[[-83.37151634417943, 42.20404299708407, 196.6], [-83.41793896440205, 42.144694698476755, 806.2], [-83.41793896440205, 42.144694698476755, 1111.2], [-83.37151634417943, 42.20404299708407, 501.6], [-83.37151634417943, 42.20404299708407, 196.6]]]}, "properties": {"flow": "north_flow", "corridor": "04R", "role": "wall", "name": "Right Wall Segment 1"}}, {"type": "Feature", "geometry": {"type": "Polygon", "coordinates": [[[-83.41133895241917, 42.1420274291618, 806.2], [-83.47123811951438, 42.0548742854726, 806.2], [-83.47123811951438, 42.0548742854726, 1111.2], [-83.41133895241917, 42.1420274291618, 1111.2], [-83.41133895241917, 42.1420274291618, 806.2]]]}, "properties": {"flow": "north_flow", "corridor": "04R", "role": "wall", "name": "Left Wall Segment 2"}}, {"type": "Feature", "geometry": {"type": "Polygon", "coordinates": [[[-83.41793896440205, 42.144694698476755, 806.2], [-83.48398627472767, 42.060033194474336, 806.2], [-83.48398627472767, 42.060033194474336, 1111.2], [-83.41793896440205, 42.144694698476755, 1111.2], [-83.41793896440205, 42.144694698476755, 806.2]]]}, "properties": {"flow": "north_flow", "corridor": "04R", "role": "wall", "name": "Right Wall Segment 2"}}, {"type": "Feature", "geometry": {"type": "LineString", "coordinates": [[-83.370377, 42.20358300000001, 196.6], [-83.4146388889, 42.1433611111, 806.2], [-83.47761193821884, 42.057453916316, 806.2]]}, "properties": {"flow": "north_flow", "corridor": "04R", "role": "centerline", "name": "Glidepath Centerline"}}, {"type": "Feature", "geometry": {"type": "Point", "coordinates": [-83.370377, 42.20358300000001, 196.6]}, "properties": {"flow": "north_flow", "corridor": "04R", "role": "waypoint", "name": "RWY04R"}}, {"type": "Feature", "geometry": {"type": "Point", "coordinates": [-83.4146388889, 42.1433611111, 806.2]}, "properties": {"flow": "north_flow", "corridor": "04R", "role": "waypoint", "name": "04R FAF (2000ft)"}}, {"type": "Feature", "geometry": {"type": "Point", "coordinates": [-83.47761193821884, 42.057453916316, 806.2]}, "properties": {"flow": "north_flow", "corridor": "04R", "role": "waypoint", "name": "04R 10NM (2000ft)"}}, {"type": "Feature", "geometry": {"type": "Polygon", "coordinates": [[[-83.35066594925877, 42.19517981003739, 196.6], [-83.39286324465047, 42.1339696111664, 806.2], [-83.45269661227603, 42.04694737848806, 806.2], [-83.4654416814237, 42.05210832420866, 806.2], [-83.39947022811428, 42.13664140527494, 806.2], [-83.35294406732964, 42.19610017869438, 196.6], [-83.35066594925877, 42.19517981003739, 196.6]]]}, "properties": {"flow": "north_flow", "corridor": "03R", "role": "bottom", "name": "Bottom"}}, {"type": "Feature", "geometry": {"type": "Polygon", "coordinates": [[[-83.35066594925877, 42.19517981003739, 501.6], [-83.39286324465047, 42.1339696111664, 1111.2], [-83.45269661227603, 42.04694737848806, 1111.2], [-83.4654416814237, 42.05210832420866, 1111.2], [-83.39947022811428, 42.13664140527494, 1111.2], [-83.35294406732964, 42.19610017869438, 501.6], [-83.35066594925877, 42.19517981003739, 501.6]]]}, "properties": {"flow": "north_flow", "corridor": "03R", "role": "top", "name": "Top"}}, {"type": "Feature", "geometry": {"type": "Polygon", "coordinates": [[[-83.35066594925877, 42.19517981003739, 196.6], [-83.39286324465047, 42.1339696111664, 806.2], [-83.39286324465047, 42.1339696111664, 1111.2], [-83.35066594925877, 42.19517981003739, 501.6], [-83.35066594925877, 42.19517981003739, 196.6]]]}, "properties": {"flow": "north_flow", "corridor": "03R", "role": "wall", "name": "Left Wall Segment 1"}}, {"type": "Feature", "geometry": {"type": "Polygon", "coordinates": [[[-83.35294406732964, 42.19610017869438, 196.6], [-83.39947022811428, 42.13664140527494, 806.2], [-83.39947022811428, 42.13664140527494, 1111.2], [-83.35294406732964, 42.19610017869438, 501.6], [-83.35294406732964, 42.19610017869438, 196.6]]]}, "properties": {"flow": "north_flow", "corridor": "03R", "role": "wall", "name": "Right Wall Segment 1"}}, {"type": "Feature", "geometry": {"type": "Polygon", "coordinates": [[[-83.39286324465047, 42.1339696111664, 806.2], [-83.45269661227603, 42.04694737848806, 806.2], [-83.45269661227603, 42.04694737848806, 1111.2], [-83.39286324465047, 42.1339696111664, 1111.2], [-83.39286324465047, 42.1339696111664, 806.2]]]}, "properties": {"flow": "north_flow", "corridor": "03R", "role": "wall", "name": "Left Wall Segment 2"}}, {"type": "Feature", "geometry": {"type": "Polygon", "coordinates": [[[-83.39947022811428, 42.13664140527494, 806.2], [-83.4654416814237, 42.05210832420866, 806.2], [-83.4654416814237, 42.05210832420866, 1111.2], [-83.39947022811428, 42.13664140527494, 1111.2], [-83.39947022811428, 42.13664140527494, 806.2]]]}, "properties": {"flow": "north_flow", "corridor": "03R", "role": "wall", "name": "Right Wall Segment 2"}}, {"type": "Feature", "geometry": {"type": "LineString", "coordinates": [[-83.35180500000001, 42.19564, 196.6], [-83.3961666667, 42.1353055556, 806.2], [-83.45906888798017, 42.049528027600495, 806.2]]}, "properties": {"flow": "north_flow", "corridor": "03R", "role": "centerline", "name": "Glidepath Centerline"}}, {"type": "Feature", "geometry": {"type": "Point", "coordinates": [-83.35180500000001, 42.19564, 196.6]}, "properties": {"flow": "north_flow", "corridor": "03R", "role": "waypoint", "name": "RWY03R"}}, {"type": "Feature", "geometry": {"type": "Point", "coordinates": [-83.3961666667, 42.1353055556, 806.2]}, "properties": {"flow": "north_flow", "corridor": "03R", "role": "waypoint", "name": "03R FAF (2000ft)"}}, {"type": "Feature", "geometry": {"type": "Point", "coordinates": [-83.45906888798017, 42.049528027600495, 806.2]}, "properties": {"flow": "north_flow", "corridor": "03R", "role": "waypoint", "name": "03R 10NM (2000ft)"}}]}