{"type": "FeatureCollection", "name": "DTW Approach Corridors \u2014 South Flow", "properties": {"flow": "south_flow", "label": "South Flow", "corridors": ["22R", "22L", "21L"], "source": "DTW Approach with Air Taxi Routes.geojson", "note": "Bottom/Top/Wall polygons carry absolute MSL altitude (m) as the 3rd coordinate."}, "features": [{"type": "Feature", "geometry": {"type": "Polygon", "coordinates": [[[-83.36514473520442, 42.2257860706113, 196.6], [-83.3196155550892, 42.28503487062356, 609.6], [-83.2836928212756, 42.3302096443415, 914.3999999999999], [-83.24771995158912, 42.37537301572765, 914.3999999999999], [-83.26073004841089, 42.38064920427235, 914.3999999999999], [-83.29276271872442, 42.3338847556585, 914.3999999999999], [-83.32474554491081, 42.28710956937645, 609.6], [-83.36741720479559, 42.2267039693887, 196.6], [-83.36514473520442, 42.2257860706113, 196.6]]]}, "properties": {"name": "Bottom", "role": "bottom", "corridor": "22R", "flow": "south_flow"}}, {"type": "Feature", "geometry": {"type": "Polygon", "coordinates": [[[-83.36514473520442, 42.2257861706113, 501.3999999999999], [-83.3196155550892, 42.28503497062356, 914.3999999999999], [-83.2836928212756, 42.3302097443415, 1219.2], [-83.24771995158912, 42.37537311572765, 1219.2], [-83.26073004841089, 42.38064930427235, 1219.2], [-83.29276271872442, 42.3338848556585, 1219.2], [-83.32474554491081, 42.28710966937645, 914.3999999999999], [-83.36741720479559, 42.2267040693887, 501.3999999999999], [-83.36514473520442, 42.2257861706113, 501.3999999999999]]]}, "properties": {"name": "Top", "role": "top", "corridor": "22R", "flow": "south_flow"}}, {"type": "Feature", "geometry": {"type": "Polygon", "coordinates": [[[-83.36741720479559, 42.2267039693887, 196.6], [-83.32474554491081, 42.28710956937645, 609.6], [-83.32474554491081, 42.28710966937645, 914.3999999999999], [-83.36741720479559, 42.2267040693887, 501.3999999999999], [-83.36741720479559, 42.2267039693887, 196.6]]]}, "properties": {"name": "Left Wall Segment 1", "role": "wall", "corridor": "22R", "flow": "south_flow"}}, {"type": "Feature", "geometry": {"type": "Polygon", "coordinates": [[[-83.36514473520442, 42.2257860706113, 196.6], [-83.3196155550892, 42.28503487062356, 609.6], [-83.3196155550892, 42.28503497062356, 914.3999999999999], [-83.36514473520442, 42.2257861706113, 501.3999999999999], [-83.36514473520442, 42.2257860706113, 196.6]]]}, "properties": {"name": "Right Wall Segment 1", "role": "wall", "corridor": "22R", "flow": "south_flow"}}, {"type": "Feature", "geometry": {"type": "Polygon", "coordinates": [[[-83.32474554491081, 42.28710956937645, 609.6], [-83.29276271872442, 42.3338847556585, 914.3999999999999], [-83.29276271872442, 42.3338848556585, 1219.2], [-83.32474554491081, 42.28710966937645, 914.3999999999999], [-83.32474554491081, 42.28710956937645, 609.6]]]}, "properties": {"name": "Left Wall Segment 2", "role": "wall", "corridor": "22R", "flow": "south_flow"}}, {"type": "Feature", "geometry": {"type": "Polygon", "coordinates": [[[-83.3196155550892, 42.28503487062356, 609.6], [-83.2836928212756, 42.3302096443415, 914.3999999999999], [-83.2836928212756, 42.3302097443415, 1219.2], [-83.3196155550892, 42.28503497062356, 914.3999999999999], [-83.3196155550892, 42.28503487062356, 609.6]]]}, "properties": {"name": "Right Wall Segment 2", "role": "wall", "corridor": "22R", "flow": "south_flow"}}, {"type": "Feature", "geometry": {"type": "Polygon", "coordinates": [[[-83.29276271872442, 42.3338847556585, 914.3999999999999], [-83.26073004841089, 42.38064920427235, 914.3999999999999], [-83.26073004841089, 42.38064930427235, 1219.2], [-83.29276271872442, 42.3338848556585, 1219.2], [-83.29276271872442, 42.3338847556585, 914.3999999999999]]]}, "properties": {"name": "Left Wall Segment 3", "role": "wall", "corridor": "22R", "flow": "south_flow"}}, {"type": "Feature", "geometry": {"type": "Polygon", "coordinates": [[[-83.2836928212756, 42.3302096443415, 914.3999999999999], [-83.24771995158912, 42.37537301572765, 914.3999999999999], [-83.24771995158912, 42.37537311572765, 1219.2], [-83.2836928212756, 42.3302097443415, 1219.2], [-83.2836928212756, 42.3302096443415, 914.3999999999999]]]}, "properties": {"name": "Right Wall Segment 3", "role": "wall", "corridor": "22R", "flow": "south_flow"}}, {"type": "Feature", "geometry": {"type": "LineString", "coordinates": [[-83.36628097, 42.22624502, 211.8], [-83.32218055, 42.28607222, 762], [-83.28822777, 42.3320472, 1066.8], [-83.254225, 42.37801111, 1066.8]]}, "properties": {"name": "Glidepath Centerline", "role": "centerline", "corridor": "22R", "flow": "south_flow"}}, {"type": "Feature", "geometry": {"type": "Point", "coordinates": [-83.36628097, 42.22624502, 211.8]}, "properties": {"name": "RWY22R", "role": "waypoint", "corridor": "22R", "flow": "south_flow"}}, {"type": "Feature", "geometry": {"type": "Point", "coordinates": [-83.32218055, 42.28607222, 762]}, "properties": {"name": "GEETR", "role": "waypoint", "corridor": "22R", "flow": "south_flow"}}, {"type": "Feature", "geometry": {"type": "Point", "coordinates": [-83.28822777, 42.3320472, 1066.8]}, "properties": {"name": "NJUNT", "role": "waypoint", "corridor": "22R", "flow": "south_flow"}}, {"type": "Feature", "geometry": {"type": "Point", "coordinates": [-83.254225, 42.37801111, 1066.8]}, "properties": {"name": "JOYDD", "role": "waypoint", "corridor": "22R", "flow": "south_flow"}}, {"type": "Feature", "geometry": {"type": "Polygon", "coordinates": [[[-83.34885438772137, 42.23075309229959, 193.8], [-83.30121271651933, 42.29330025397591, 609.6], [-83.26351252033166, 42.34119792265329, 914.3999999999999], [-83.22597874190585, 42.38879646380063, 1219.2], [-83.23757125809414, 42.39350353619938, 1219.2], [-83.27160347966834, 42.34448007734671, 914.3999999999999], [-83.30578128348066, 42.29514974602408, 609.6], [-83.35112643227863, 42.23167156770042, 193.8], [-83.34885438772137, 42.23075309229959, 193.8]]]}, "properties": {"name": "Bottom", "role": "bottom", "corridor": "22L", "flow": "south_flow"}}, {"type": "Feature", "geometry": {"type": "Polygon", "coordinates": [[[-83.34885438772137, 42.23075319229959, 498.6], [-83.30121271651933, 42.29330035397592, 914.3999999999999], [-83.26351252033166, 42.34119802265329, 1219.2], [-83.22597874190585, 42.38879656380063, 1524], [-83.23757125809414, 42.39350363619938, 1524], [-83.27160347966834, 42.34448017734671, 1219.2], [-83.30578128348066, 42.29514984602408, 914.3999999999999], [-83.35112643227863, 42.23167166770042, 498.6], [-83.34885438772137, 42.23075319229959, 498.6]]]}, "properties": {"name": "Top", "role": "top", "corridor": "22L", "flow": "south_flow"}}, {"type": "Feature", "geometry": {"type": "Polygon", "coordinates": [[[-83.35112643227863, 42.23167156770042, 193.8], [-83.30578128348066, 42.29514974602408, 609.6], [-83.30578128348066, 42.29514984602408, 914.3999999999999], [-83.35112643227863, 42.23167166770042, 498.6], [-83.35112643227863, 42.23167156770042, 193.8]]]}, "properties": {"name": "Left Wall Segment 1", "role": "wall", "corridor": "22L", "flow": "south_flow"}}, {"type": "Feature", "geometry": {"type": "Polygon", "coordinates": [[[-83.34885438772137, 42.23075309229959, 193.8], [-83.30121271651933, 42.29330025397591, 609.6], [-83.30121271651933, 42.29330035397592, 914.3999999999999], [-83.34885438772137, 42.23075319229959, 498.6], [-83.34885438772137, 42.23075309229959, 193.8]]]}, "properties": {"name": "Right Wall Segment 1", "role": "wall", "corridor": "22L", "flow": "south_flow"}}, {"type": "Feature", "geometry": {"type": "Polygon", "coordinates": [[[-83.30578128348066, 42.29514974602408, 609.6], [-83.27160347966834, 42.34448007734671, 914.3999999999999], [-83.27160347966834, 42.34448017734671, 1219.2], [-83.30578128348066, 42.29514984602408, 914.3999999999999], [-83.30578128348066, 42.29514974602408, 609.6]]]}, "properties": {"name": "Left Wall Segment 2", "role": "wall", "corridor": "22L", "flow": "south_flow"}}, {"type": "Feature", "geometry": {"type": "Polygon", "coordinates": [[[-83.30121271651933, 42.29330025397591, 609.6], [-83.26351252033166, 42.34119792265329, 914.3999999999999], [-83.26351252033166, 42.34119802265329, 1219.2], [-83.30121271651933, 42.29330035397592, 914.3999999999999], [-83.30121271651933, 42.29330025397591, 609.6]]]}, "properties": {"name": "Right Wall Segment 2", "role": "wall", "corridor": "22L", "flow": "south_flow"}}, {"type": "Feature", "geometry": {"type": "Polygon", "coordinates": [[[-83.27160347966834, 42.34448007734671, 914.3999999999999], [-83.23757125809414, 42.39350353619938, 1219.2], [-83.23757125809414, 42.39350363619938, 1524], [-83.27160347966834, 42.34448017734671, 1219.2], [-83.27160347966834, 42.34448007734671, 914.3999999999999]]]}, "properties": {"name": "Left Wall Segment 3", "role": "wall", "corridor": "22L", "flow": "south_flow"}}, {"type": "Feature", "geometry": {"type": "Polygon", "coordinates": [[[-83.26351252033166, 42.34119792265329, 914.3999999999999], [-83.22597874190585, 42.38879646380063, 1219.2], [-83.22597874190585, 42.38879656380063, 1524], [-83.26351252033166, 42.34119802265329, 1219.2], [-83.26351252033166, 42.34119792265329, 914.3999999999999]]]}, "properties": {"name": "Right Wall Segment 3", "role": "wall", "corridor": "22L", "flow": "south_flow"}}, {"type": "Feature", "geometry": {"type": "LineString", "coordinates": [[-83.34999041, 42.23121233, 346.2], [-83.303497, 42.294225, 762], [-83.267558, 42.342839, 1066.8], [-83.231775, 42.39115, 1371.6]]}, "properties": {"name": "Glidepath Centerline", "role": "centerline", "corridor": "22L", "flow": "south_flow"}}, {"type": "Feature", "geometry": {"type": "Point", "coordinates": [-83.34999041, 42.23121233, 346.2]}, "properties": {"name": "RWY22L", "role": "waypoint", "corridor": "22L", "flow": "south_flow"}}, {"type": "Feature", "geometry": {"type": "Point", "coordinates": [-83.303497, 42.294225, 762]}, "properties": {"name": "HULKA", "role": "waypoint", "corridor": "22L", "flow": "south_flow"}}, {"type": "Feature", "geometry": {"type": "Point", "coordinates": [-83.267558, 42.342839, 1066.8]}, "properties": {"name": "ROUGE", "role": "waypoint", "corridor": "22L", "flow": "south_flow"}}, {"type": "Feature", "geometry": {"type": "Point", "coordinates": [-83.231775, 42.39115, 1371.6]}, "properties": {"name": "OSKER", "role": "waypoint", "corridor": "22L", "flow": "south_flow"}}, {"type": "Feature", "geometry": {"type": "Polygon", "coordinates": [[[-83.33293381807583, 42.21922285675853, 192.6], [-83.30853215287193, 42.25184933759776, 426.6999999999999], [-83.28701269455256, 42.27892764724901, 609.6], [-83.25107720679881, 42.32407966399838, 914.3999999999999], [-83.21508421111216, 42.36923480614894, 1219.2], [-83.22805978888783, 42.37450319385106, 1219.2], [-83.2601347932012, 42.32775433600162, 914.3999999999999], [-83.29215330544741, 42.281010352751, 609.6], [-83.31132384712808, 42.25297866240225, 426.6999999999999], [-83.33520600192418, 42.22014114324147, 192.6], [-83.33293381807583, 42.21922285675853, 192.6]]]}, "properties": {"name": "Bottom", "role": "bottom", "corridor": "21L", "flow": "south_flow"}}, {"type": "Feature", "geometry": {"type": "Polygon", "coordinates": [[[-83.33293381807583, 42.21922295675853, 497.4], [-83.30853215287193, 42.25184943759776, 731.5], [-83.28701269455256, 42.27892774724901, 914.3999999999999], [-83.25107720679881, 42.32407976399838, 1219.2], [-83.21508421111216, 42.36923490614894, 1524], [-83.22805978888783, 42.37450329385106, 1524], [-83.2601347932012, 42.32775443600162, 1219.2], [-83.29215330544741, 42.281010452751, 914.3999999999999], [-83.31132384712808, 42.25297876240225, 731.5], [-83.33520600192418, 42.22014124324147, 497.4], [-83.33293381807583, 42.21922295675853, 497.4]]]}, "properties": {"name": "Top", "role": "top", "corridor": "21L", "flow": "south_flow"}}, {"type": "Feature", "geometry": {"type": "Polygon", "coordinates": [[[-83.33520600192418, 42.22014114324147, 192.6], [-83.31132384712808, 42.25297866240225, 426.6999999999999], [-83.31132384712808, 42.25297876240225, 731.5], [-83.33520600192418, 42.22014124324147, 497.4], [-83.33520600192418, 42.22014114324147, 192.6]]]}, "properties": {"name": "Left Wall Segment 1", "role": "wall", "corridor": "21L", "flow": "south_flow"}}, {"type": "Feature", "geometry": {"type": "Polygon", "coordinates": [[[-83.33293381807583, 42.21922285675853, 192.6], [-83.30853215287193, 42.25184933759776, 426.6999999999999], [-83.30853215287193, 42.25184943759776, 731.5], [-83.33293381807583, 42.21922295675853, 497.4], [-83.33293381807583, 42.21922285675853, 192.6]]]}, "properties": {"name": "Right Wall Segment 1", "role": "wall", "corridor": "21L", "flow": "south_flow"}}, {"type": "Feature", "geometry": {"type": "Polygon", "coordinates": [[[-83.31132384712808, 42.25297866240225, 426.6999999999999], [-83.29215330544741, 42.281010352751, 609.6], [-83.29215330544741, 42.281010452751, 914.3999999999999], [-83.31132384712808, 42.25297876240225, 731.5], [-83.31132384712808, 42.25297866240225, 426.6999999999999]]]}, "properties": {"name": "Left Wall Segment 2", "role": "wall", "corridor": "21L", "flow": "south_flow"}}, {"type": "Feature", "geometry": {"type": "Polygon", "coordinates": [[[-83.30853215287193, 42.25184933759776, 426.6999999999999], [-83.28701269455256, 42.27892764724901, 609.6], [-83.28701269455256, 42.27892774724901, 914.3999999999999], [-83.30853215287193, 42.25184943759776, 731.5], [-83.30853215287193, 42.25184933759776, 426.6999999999999]]]}, "properties": {"name": "Right Wall Segment 2", "role": "wall", "corridor": "21L", "flow": "south_flow"}}, {"type": "Feature", "geometry": {"type": "Polygon", "coordinates": [[[-83.29215330544741, 42.281010352751, 609.6], [-83.2601347932012, 42.32775433600162, 914.3999999999999], [-83.2601347932012, 42.32775443600162, 1219.2], [-83.29215330544741, 42.281010452751, 914.3999999999999], [-83.29215330544741, 42.281010352751, 609.6]]]}, "properties": {"name": "Left Wall Segment 3", "role": "wall", "corridor": "21L", "flow": "south_flow"}}, {"type": "Feature", "geometry": {"type": "Polygon", "coordinates": [[[-83.28701269455256, 42.27892764724901, 609.6], [-83.25107720679881, 42.32407966399838, 914.3999999999999], [-83.25107720679881, 42.32407976399838, 1219.2], [-83.28701269455256, 42.27892774724901, 914.3999999999999], [-83.28701269455256, 42.27892764724901, 609.6]]]}, "properties": {"name": "Right Wall Segment 3", "role": "wall", "corridor": "21L", "flow": "south_flow"}}, {"type": "Feature", "geometry": {"type": "Polygon", "coordinates": [[[-83.2601347932012, 42.32775433600162, 914.3999999999999], [-83.22805978888783, 42.37450319385106, 1219.2], [-83.22805978888783, 42.37450329385106, 1524], [-83.2601347932012, 42.32775443600162, 1219.2], [-83.2601347932012, 42.32775433600162, 914.3999999999999]]]}, "properties": {"name": "Left Wall Segment 4", "role": "wall", "corridor": "21L", "flow": "south_flow"}}, {"type": "Feature", "geometry": {"type": "Polygon", "coordinates": [[[-83.25107720679881, 42.32407966399838, 914.3999999999999], [-83.21508421111216, 42.36923480614894, 1219.2], [-83.21508421111216, 42.36923490614894, 1524], [-83.25107720679881, 42.32407976399838, 1219.2], [-83.25107720679881, 42.32407966399838, 914.3999999999999]]]}, "properties": {"name": "Right Wall Segment 4", "role": "wall", "corridor": "21L", "flow": "south_flow"}}, {"type": "Feature", "geometry": {"type": "LineString", "coordinates": [[-83.33406991, 42.219682, 345], [-83.309928, 42.252414, 579.1], [-83.289583, 42.279969, 762], [-83.255606, 42.325917, 1066.8], [-83.221572, 42.371869, 1371.6]]}, "properties": {"name": "Glidepath Centerline", "role": "centerline", "corridor": "21L", "flow": "south_flow"}}, {"type": "Feature", "geometry": {"type": "Point", "coordinates": [-83.33406991, 42.219682, 345]}, "properties": {"name": "RWY21L", "role": "waypoint", "corridor": "21L", "flow": "south_flow"}}, {"type": "Feature", "geometry": {"type": "Point", "coordinates": [-83.309928, 42.252414, 579.1]}, "properties": {"name": "ZITKA", "role": "waypoint", "corridor": "21L", "flow": "south_flow"}}, {"type": "Feature", "geometry": {"type": "Point", "coordinates": [-83.289583, 42.279969, 762]}, "properties": {"name": "PUKLE INT", "role": "waypoint", "corridor": "21L", "flow": "south_flow"}}, {"type": "Feature", "geometry": {"type": "Point", "coordinates": [-83.255606, 42.325917, 1066.8]}, "properties": {"name": "NESBI", "role": "waypoint", "corridor": "21L", "flow": "south_flow"}}, {"type": "Feature", "geometry": {"type": "Point", "coordinates": [-83.221572, 42.371869, 1371.6]}, "properties": {"name": "BALAS", "role": "waypoint", "corridor": "21L", "flow": "south_flow"}}]}