{"type": "FeatureCollection", "name": "DTW Approach Corridors \u2014 West Flow", "properties": {"flow": "west_flow", "label": "West Flow", "corridors": ["27R", "27L"], "note": "Glide to the FAF then hold 2000 ft AGL (step-down) out to 10 NM; width/band from South Flow."}, "features": [{"type": "Feature", "geometry": {"type": "Polygon", "coordinates": [[[-83.33109583592966, 42.21847296008616, 196.6], [-83.23847255498309, 42.221788033745305, 806.2], [-83.10663184592171, 42.22637780847053, 806.2], [-83.10630843942744, 42.21560068596846, 806.2], [-83.23830523020463, 42.2162119661939, 806.2], [-83.33103816494793, 42.21655103990661, 196.6], [-83.33109583592966, 42.21847296008616, 196.6]]]}, "properties": {"flow": "west_flow", "corridor": "27R", "role": "bottom", "name": "Bottom"}}, {"type": "Feature", "geometry": {"type": "Polygon", "coordinates": [[[-83.33109583592966, 42.21847296008616, 501.6], [-83.23847255498309, 42.221788033745305, 1111.2], [-83.10663184592171, 42.22637780847053, 1111.2], [-83.10630843942744, 42.21560068596846, 1111.2], [-83.23830523020463, 42.2162119661939, 1111.2], [-83.33103816494793, 42.21655103990661, 501.6], [-83.33109583592966, 42.21847296008616, 501.6]]]}, "properties": {"flow": "west_flow", "corridor": "27R", "role": "top", "name": "Top"}}, {"type": "Feature", "geometry": {"type": "Polygon", "coordinates": [[[-83.33109583592966, 42.21847296008616, 196.6], [-83.23847255498309, 42.221788033745305, 806.2], [-83.23847255498309, 42.221788033745305, 1111.2], [-83.33109583592966, 42.21847296008616, 501.6], [-83.33109583592966, 42.21847296008616, 196.6]]]}, "properties": {"flow": "west_flow", "corridor": "27R", "role": "wall", "name": "Left Wall Segment 1"}}, {"type": "Feature", "geometry": {"type": "Polygon", "coordinates": [[[-83.33103816494793, 42.21655103990661, 196.6], [-83.23830523020463, 42.2162119661939, 806.2], [-83.23830523020463, 42.2162119661939, 1111.2], [-83.33103816494793, 42.21655103990661, 501.6], [-83.33103816494793, 42.21655103990661, 196.6]]]}, "properties": {"flow": "west_flow", "corridor": "27R", "role": "wall", "name": "Right Wall Segment 1"}}, {"type": "Feature", "geometry": {"type": "Polygon", "coordinates": [[[-83.23847255498309, 42.221788033745305, 806.2], [-83.10663184592171, 42.22637780847053, 806.2], [-83.10663184592171, 42.22637780847053, 1111.2], [-83.23847255498309, 42.221788033745305, 1111.2], [-83.23847255498309, 42.221788033745305, 806.2]]]}, "properties": {"flow": "west_flow", "corridor": "27R", "role": "wall", "name": "Left Wall Segment 2"}}, {"type": "Feature", "geometry": {"type": "Polygon", "coordinates": [[[-83.23830523020463, 42.2162119661939, 806.2], [-83.10630843942744, 42.21560068596846, 806.2], [-83.10630843942744, 42.21560068596846, 1111.2], [-83.23830523020463, 42.2162119661939, 1111.2], [-83.23830523020463, 42.2162119661939, 806.2]]]}, "properties": {"flow": "west_flow", "corridor": "27R", "role": "wall", "name": "Right Wall Segment 2"}}, {"type": "Feature", "geometry": {"type": "LineString", "coordinates": [[-83.331067, 42.217512, 196.6], [-83.2383888889, 42.219, 806.2], [-83.10647012887475, 42.22098924733305, 806.2]]}, "properties": {"flow": "west_flow", "corridor": "27R", "role": "centerline", "name": "Glidepath Centerline"}}, {"type": "Feature", "geometry": {"type": "Point", "coordinates": [-83.331067, 42.217512, 196.6]}, "properties": {"flow": "west_flow", "corridor": "27R", "role": "waypoint", "name": "RWY27R"}}, {"type": "Feature", "geometry": {"type": "Point", "coordinates": [-83.2383888889, 42.219, 806.2]}, "properties": {"flow": "west_flow", "corridor": "27R", "role": "waypoint", "name": "27R FAF (2000ft)"}}, {"type": "Feature", "geometry": {"type": "Point", "coordinates": [-83.10647012887475, 42.22098924733305, 806.2]}, "properties": {"flow": "west_flow", "corridor": "27R", "role": "waypoint", "name": "27R 10NM (2000ft)"}}, {"type": "Feature", "geometry": {"type": "Polygon", "coordinates": [[[-83.33043066933844, 42.200509962686624, 196.6], [-83.23788870562606, 42.203814723613796, 806.2], [-83.10602924146069, 42.20839465080473, 806.2], [-83.1057077034645, 42.19761749913903, 806.2], [-83.2377224129086, 42.198240831926164, 806.2], [-83.33037333153356, 42.198588037306244, 196.6], [-83.33043066933844, 42.200509962686624, 196.6]]]}, "properties": {"flow": "west_flow", "corridor": "27L", "role": "bottom", "name": "Bottom"}}, {"type": "Feature", "geometry": {"type": "Polygon", "coordinates": [[[-83.33043066933844, 42.200509962686624, 501.6], [-83.23788870562606, 42.203814723613796, 1111.2], [-83.10602924146069, 42.20839465080473, 1111.2], [-83.1057077034645, 42.19761749913903, 1111.2], [-83.2377224129086, 42.198240831926164, 1111.2], [-83.33037333153356, 42.198588037306244, 501.6], [-83.33043066933844, 42.200509962686624, 501.6]]]}, "properties": {"flow": "west_flow", "corridor": "27L", "role": "top", "name": "Top"}}, {"type": "Feature", "geometry": {"type": "Polygon", "coordinates": [[[-83.33043066933844, 42.200509962686624, 196.6], [-83.23788870562606, 42.203814723613796, 806.2], [-83.23788870562606, 42.203814723613796, 1111.2], [-83.33043066933844, 42.200509962686624, 501.6], [-83.33043066933844, 42.200509962686624, 196.6]]]}, "properties": {"flow": "west_flow", "corridor": "27L", "role": "wall", "name": "Left Wall Segment 1"}}, {"type": "Feature", "geometry": {"type": "Polygon", "coordinates": [[[-83.33037333153356, 42.198588037306244, 196.6], [-83.2377224129086, 42.198240831926164, 806.2], [-83.2377224129086, 42.198240831926164, 1111.2], [-83.33037333153356, 42.198588037306244, 501.6], [-83.33037333153356, 42.198588037306244, 196.6]]]}, "properties": {"flow": "west_flow", "corridor": "27L", "role": "wall", "name": "Right Wall Segment 1"}}, {"type": "Feature", "geometry": {"type": "Polygon", "coordinates": [[[-83.23788870562606, 42.203814723613796, 806.2], [-83.10602924146069, 42.20839465080473, 806.2], [-83.10602924146069, 42.20839465080473, 1111.2], [-83.23788870562606, 42.203814723613796, 1111.2], [-83.23788870562606, 42.203814723613796, 806.2]]]}, "properties": {"flow": "west_flow", "corridor": "27L", "role": "wall", "name": "Left Wall Segment 2"}}, {"type": "Feature", "geometry": {"type": "Polygon", "coordinates": [[[-83.2377224129086, 42.198240831926164, 806.2], [-83.1057077034645, 42.19761749913903, 806.2], [-83.1057077034645, 42.19761749913903, 1111.2], [-83.2377224129086, 42.198240831926164, 1111.2], [-83.2377224129086, 42.198240831926164, 806.2]]]}, "properties": {"flow": "west_flow", "corridor": "27L", "role": "wall", "name": "Right Wall Segment 2"}}, {"type": "Feature", "geometry": {"type": "LineString", "coordinates": [[-83.330402, 42.199549000000005, 196.6], [-83.2378055556, 42.2010277778, 806.2], [-83.10586845875112, 42.20300607508412, 806.2]]}, "properties": {"flow": "west_flow", "corridor": "27L", "role": "centerline", "name": "Glidepath Centerline"}}, {"type": "Feature", "geometry": {"type": "Point", "coordinates": [-83.330402, 42.199549000000005, 196.6]}, "properties": {"flow": "west_flow", "corridor": "27L", "role": "waypoint", "name": "RWY27L"}}, {"type": "Feature", "geometry": {"type": "Point", "coordinates": [-83.2378055556, 42.2010277778, 806.2]}, "properties": {"flow": "west_flow", "corridor": "27L", "role": "waypoint", "name": "27L FAF (2000ft)"}}, {"type": "Feature", "geometry": {"type": "Point", "coordinates": [-83.10586845875112, 42.20300607508412, 806.2]}, "properties": {"flow": "west_flow", "corridor": "27L", "role": "waypoint", "name": "27L 10NM (2000ft)"}}]}